[{"OBJECT_NAME":"UHETSAT","OBJECT_ID":"2023-185E","EPOCH":"2026-03-09T22:39:26.455680","MEAN_MOTION":15.29797662,"ECCENTRICITY":0.00118435,"INCLINATION":97.3584,"RA_OF_ASC_NODE":137.3576,"ARG_OF_PERICENTER":307.7346,"MEAN_ANOMALY":52.2821,"EPHEMERIS_TYPE":0,"CLASSIFICATION_TYPE":"U","NORAD_CAT_ID":58466,"ELEMENT_SET_NO":999,"REV_AT_EPOCH":12611,"BSTAR":0.00030513019,"MEAN_MOTION_DOT":8.749e-5,"MEAN_MOTION_DDOT":0},{"OBJECT_NAME":"STARLINK-35533","OBJECT_ID":"2025-259H","EPOCH":"2026-03-08T23:24:31.730400","MEAN_MOTION":15.27541105,"ECCENTRICITY":0.00030097,"INCLINATION":43.0059,"RA_OF_ASC_NODE":278.2403,"ARG_OF_PERICENTER":262.8657,"MEAN_ANOMALY":97.1852,"EPHEMERIS_TYPE":0,"CLASSIFICATION_TYPE":"U","NORAD_CAT_ID":66429,"ELEMENT_SET_NO":999,"REV_AT_EPOCH":1938,"BSTAR":0.0015615382,"MEAN_MOTION_DOT":0.0004291,"MEAN_MOTION_DDOT":0}]
